NORAD_CAT_ID,OBJECT_NAME,OBJECT_TYPE,EPOCH,MEAN_MOTION,ECCENTRICITY,INCLINATION,RA_OF_ASC_NODE,ARG_OF_PERICENTER,MEAN_ANOMALY,BSTAR,MEAN_MOTION_DOT,MEAN_MOTION_DDOT,TLE_LINE0,TLE_LINE1,TLE_LINE2,SEMIMAJOR_AXIS,PERIOD,APOGEE,PERIGEE,DECAYED
51894.0,STARLINK-3595,PAYLOAD,2024-06-13 18:09:40,15.08845563,0.0001268,53.2179,324.9583,81.3112,278.8024,0.00029551,4.419e-05,0.0,0 STARLINK-3595,1 51894U 22022AU  24165.75672346  .00004419  00000-0  29551-3 0  9996,2 51894  53.2179 324.9583 0001268  81.3112 278.8024 15.08845563127605,6917.863,95.437,540.606,538.851,0.0
51894.0,STARLINK-3595,PAYLOAD,2024-06-14 14:49:41,15.08839317,0.0001275,53.2176,321.0931,83.6047,276.509,0.00012593,1.717e-05,0.0,0 STARLINK-3595,1 51894U 22022AU  24166.61784661  .00001717  00000-0  12593-3 0  9992,2 51894  53.2176 321.0931 0001275  83.6047 276.5090 15.08839317127739,6917.882,95.438,540.63,538.865,0.0
51894.0,STARLINK-3595,PAYLOAD,2024-06-14 19:35:51,15.08846642,0.0001239,53.2178,320.1989,82.4008,277.7125,0.00022076,3.228e-05,0.0,0 STARLINK-3595,1 51894U 22022AU  24166.81656353  .00003228  00000-0  22076-3 0  9996,2 51894  53.2178 320.1989 0001239  82.4008 277.7125 15.08846642127762,6917.86,95.437,540.582,538.868,0.0
51894.0,STARLINK-3595,PAYLOAD,2024-06-15 14:40:28,15.08841941,0.0001073,53.2174,316.628,95.1593,264.9522,0.00012888,1.764e-05,0.0,0 STARLINK-3595,1 51894U 22022AU  24167.61144489  .00001764  00000-0  12888-3 0  9990,2 51894  53.2174 316.6280 0001073  95.1593 264.9522 15.08841941127887,6917.874,95.437,540.482,538.997,0.0
51894.0,STARLINK-3595,PAYLOAD,2024-06-15 19:26:37,15.08850466,0.000134,53.2176,315.7366,94.7495,265.365,0.00018197,2.61e-05,0.0,0 STARLINK-3595,1 51894U 22022AU  24167.81016125  .00002610  00000-0  18197-3 0  9997,2 51894  53.2176 315.7366 0001340  94.7495 265.3650 15.08850466127910,6917.848,95.437,540.64,538.786,0.0
51894.0,STARLINK-3595,PAYLOAD,2024-06-16 14:31:15,15.08845453,0.0001202,53.2175,312.1675,99.7262,260.3866,0.0001875,2.698e-05,0.0,0 STARLINK-3595,1 51894U 22022AU  24168.60504206  .00002698  00000-0  18750-3 0  9998,2 51894  53.2175 312.1675 0001202  99.7262 260.3866 15.08845453128035,6917.864,95.437,540.56,538.897,0.0
51894.0,STARLINK-3595,PAYLOAD,2024-06-16 16:06:38,15.08847764,0.0001311,53.2176,311.868,105.3031,254.8106,0.00020254,2.938e-05,0.0,0 STARLINK-3595,1 51894U 22022AU  24168.67128054  .00002938  00000-0  20254-3 0  9997,2 51894  53.2176 311.8680 0001311 105.3031 254.8106 15.08847764128040,6917.857,95.437,540.629,538.815,0.0
51894.0,STARLINK-3595,PAYLOAD,2024-06-17 19:08:13,15.08827151,0.0001315,53.2177,306.8207,81.0527,279.0614,-0.00014994,-2.673e-05,0.0,0 STARLINK-3595,1 51894U 22022AU  24169.79737969 -.00002673  00000-0 -14994-3 0  9994,2 51894  53.2177 306.8207 0001315  81.0527 279.0614 15.08827151128214,6917.92,95.438,540.694,538.875,0.0
51894.0,STARLINK-3595,PAYLOAD,2024-06-18 12:37:27,15.08841373,0.0001258,53.2169,303.55,62.1673,297.9446,0.00014286,1.987e-05,0.0,0 STARLINK-3595,1 51894U 22022AU  24170.52601578  .00001987  00000-0  14286-3 0  9992,2 51894  53.2169 303.5500 0001258  62.1673 297.9446 15.08841373128329,6917.876,95.437,540.611,538.871,0.0
51894.0,STARLINK-3595,PAYLOAD,2024-06-18 14:12:50,15.08839962,0.0001485,53.2181,303.2528,53.5657,306.5472,0.00014103,1.957e-05,0.0,0 STARLINK-3595,1 51894U 22022AU  24170.59225686  .00001957  00000-0  14103-3 0  9996,2 51894  53.2181 303.2528 0001485  53.5657 306.5472 15.08839962128336,6917.881,95.438,540.773,538.718,0.0
51894.0,STARLINK-3595,PAYLOAD,2024-06-18 15:48:14,15.08847326,0.0001394,53.2179,302.9572,85.6458,274.4693,0.00045957,7.035e-05,0.0,0 STARLINK-3595,1 51894U 22022AU  24170.65849833  .00007035  00000-0  45957-3 0  9993,2 51894  53.2179 302.9572 0001394  85.6458 274.4693 15.08847326128344,6917.858,95.437,540.687,538.759,0.0
51894.0,STARLINK-3595,PAYLOAD,2024-06-19 12:28:15,15.08836331,0.0001616,53.2173,299.0887,76.1084,284.0088,0.00045865,7.018e-05,0.0,0 STARLINK-3595,1 51894U 22022AU  24171.51962120  .00007018  00000-0  45865-3 0  9993,2 51894  53.2173 299.0887 0001616  76.1084 284.0088 15.08836331128473,6917.892,95.438,540.875,538.639,0.0
51894.0,STARLINK-3595,PAYLOAD,2024-06-19 14:03:37,15.08848236,0.000115,53.2183,298.7904,74.0644,286.0475,0.00026093,3.868e-05,0.0,0 STARLINK-3595,1 51894U 22022AU  24171.58585467  .00003868  00000-0  26093-3 0  9996,2 51894  53.2183 298.7904 0001150  74.0644 286.0475 15.08848236128482,6917.855,95.437,540.516,538.925,0.0
51894.0,STARLINK-3595,PAYLOAD,2024-06-19 15:39:00,15.08850807,0.0001191,53.2181,298.4936,66.9175,293.1943,0.00028858,4.309e-05,0.0,0 STARLINK-3595,1 51894U 22022AU  24171.65209335  .00004309  00000-0  28858-3 0  9993,2 51894  53.2181 298.4936 0001191  66.9175 293.1943 15.08850807128493,6917.847,95.437,540.536,538.888,0.0
51894.0,STARLINK-3595,PAYLOAD,2024-06-20 13:54:24,15.08844707,0.0001392,53.2181,294.3337,86.2301,273.8851,-6.2889e-05,-1.289e-05,0.0,0 STARLINK-3595,1 51894U 22022AU  24172.57945311 -.00001289  00000-0 -62889-4 0  9995,2 51894  53.2181 294.3337 0001392  86.2301 273.8851 15.08844707128633,6917.866,95.437,540.694,538.768,0.0
51894.0,STARLINK-3595,PAYLOAD,2024-06-20 15:29:48,15.08846828,0.0001382,53.219,294.0382,93.0233,267.0917,2.6169e-05,1.29e-06,0.0,0 STARLINK-3595,1 51894U 22022AU  24172.64569591  .00000129  00000-0  26169-4 0  9996,2 51894  53.2190 294.0382 0001382  93.0233 267.0917 15.08846828128644,6917.86,95.437,540.681,538.768,0.0
51894.0,STARLINK-3595,PAYLOAD,2024-06-21 12:09:49,15.08838649,0.0001226,53.2178,290.1689,64.2443,295.8675,-1.3803e-05,-5.08e-06,0.0,0 STARLINK-3595,1 51894U 22022AU  24173.50682122 -.00000508  00000-0 -13803-4 0  9992,2 51894  53.2178 290.1689 0001226  64.2443 295.8675 15.08838649128773,6917.885,95.438,540.598,538.901,0.0
51894.0,STARLINK-3595,PAYLOAD,2024-06-21 13:45:12,15.08839964,9.67e-05,53.2176,289.8714,45.0318,315.0752,1.681e-05,-2e-07,0.0,0 STARLINK-3595,1 51894U 22022AU  24173.57305931 -.00000020  00000-0  16810-4 0  9998,2 51894  53.2176 289.8714 0000967  45.0318 315.0752 15.08839964128787,6917.88,95.438,540.414,539.077,0.0
51894.0,STARLINK-3595,PAYLOAD,2024-06-21 15:20:35,15.08837365,0.0001322,53.2177,289.5741,81.6922,278.422,9.466e-05,1.219e-05,0.0,0 STARLINK-3595,1 51894U 22022AU  24173.63929913  .00001219  00000-0  94660-4 0  9996,2 51894  53.2177 289.5741 0001322  81.6922 278.4220 15.08837365128794,6917.888,95.438,540.668,538.839,0.0
51894.0,STARLINK-3595,PAYLOAD,2024-06-22 13:35:58,15.08845365,0.0001323,53.2178,285.4103,79.9,280.2141,8.5423e-05,1.072e-05,0.0,0 STARLINK-3595,1 51894U 22022AU  24174.56665361  .00001072  00000-0  85423-4 0  9997,2 51894  53.2178 285.4103 0001323  79.9000 280.2141 15.08845365128938,6917.864,95.437,540.644,538.814,0.0
51894.0,STARLINK-3595,PAYLOAD,2024-06-22 16:46:44,15.08850531,0.0001332,53.218,284.815,83.461,276.6533,0.00013038,1.788e-05,0.0,0 STARLINK-3595,1 51894U 22022AU  24174.69912856  .00001788  00000-0  13038-3 0  9991,2 51894  53.2180 284.8150 0001332  83.4610 276.6533 15.08850531128950,6917.848,95.437,540.635,538.792,0.0
51894.0,STARLINK-3595,PAYLOAD,2024-06-23 13:26:45,15.08843418,0.0001578,53.2186,280.9477,110.9055,249.2106,4.584e-05,4.42e-06,0.0,0 STARLINK-3595,1 51894U 22022AU  24175.56025337  .00000442  00000-0  45840-4 0  9990,2 51894  53.2186 280.9477 0001578 110.9055 249.2106 15.08843418129089,6917.87,95.437,540.827,538.643,0.0
51894.0,STARLINK-3595,PAYLOAD,2024-06-24 13:17:32,15.0885083,0.0001818,53.2198,276.4888,117.2851,242.8327,6.9205e-05,8.14e-06,0.0,0 STARLINK-3595,1 51894U 22022AU  24176.55384467  .00000814  00000-0  69205-4 0  9996,2 51894  53.2198 276.4888 0001818 117.2851 242.8327 15.08850830129236,6917.847,95.437,540.97,538.455,0.0
51894.0,STARLINK-3595,PAYLOAD,2024-06-25 13:08:20,15.08839219,0.0001342,53.218,272.0288,91.5976,268.517,7.0169e-06,-1.76e-06,0.0,0 STARLINK-3595,1 51894U 22022AU  24177.54745384 -.00000176  00000-0  70169-5 0  9999,2 51894  53.2180 272.0288 0001342  91.5976 268.5170 15.08839219129382,6917.883,95.438,540.676,538.819,0.0
51894.0,STARLINK-3595,PAYLOAD,2024-06-25 14:43:42,15.08842286,0.0001255,53.2175,271.7304,100.249,259.8644,3.0417e-05,1.96e-06,0.0,0 STARLINK-3595,1 51894U 22022AU  24177.61369058  .00000196  00000-0  30417-4 0  9999,2 51894  53.2175 271.7304 0001255 100.2490 259.8644 15.08842286129391,6917.873,95.437,540.607,538.87,0.0
51894.0,STARLINK-3595,PAYLOAD,2024-06-26 11:23:43,15.08846732,0.0001257,53.2176,267.8623,97.5555,262.558,1.8375e-06,-2.59e-06,0.0,0 STARLINK-3595,1 51894U 22022AU  24178.47480778 -.00000259  00000-0  18375-5 0  9998,2 51894  53.2176 267.8623 0001257  97.5555 262.5580 15.08846732129529,6917.86,95.437,540.594,538.855,0.0
51894.0,STARLINK-3595,PAYLOAD,2024-06-27 12:49:54,15.08838618,0.0001248,53.2168,263.1068,85.1387,274.9748,4.9362e-05,4.98e-06,0.0,0 STARLINK-3595,1 51894U 22022AU  24179.53465333  .00000498  00000-0  49362-4 0  9999,2 51894  53.2168 263.1068 0001248  85.1387 274.9748 15.08838618129682,6917.885,95.438,540.613,538.886,0.0
51894.0,STARLINK-3595,PAYLOAD,2024-06-28 12:40:40,15.0885136,0.0001167,53.2158,258.6454,97.319,262.7935,0.00016476,2.336e-05,0.0,0 STARLINK-3595,1 51894U 22022AU  24180.52824431  .00002336  00000-0  16476-3 0  9990,2 51894  53.2158 258.6454 0001167  97.3190 262.7935 15.08851360129835,6917.846,95.437,540.518,538.903,0.0
51894.0,STARLINK-3595,PAYLOAD,2024-06-28 22:12:59,15.08842213,0.0001495,53.216,256.8608,65.6941,294.4208,9.6792e-05,1.253e-05,0.0,0 STARLINK-3595,1 51894U 22022AU  24180.92569265  .00001253  00000-0  96792-4 0  9992,2 51894  53.2160 256.8608 0001495  65.6941 294.4208 15.08842213129893,6917.874,95.437,540.773,538.704,0.0
51894.0,STARLINK-3595,PAYLOAD,2024-06-29 04:34:33,15.088246,0.0001657,53.215,255.6728,75.6624,284.4552,-2.626e-05,-7.06e-06,0.0,0 STARLINK-3595,1 51894U 22022AU  24181.19066843 -.00000706  00000-0 -26260-4 0  9993,2 51894  53.2150 255.6728 0001657  75.6624 284.4552 15.08824600129937,6917.927,95.439,540.939,538.646,0.0
